NORAD_CAT_ID,OBJECT_NAME,OBJECT_TYPE,EPOCH,MEAN_MOTION,ECCENTRICITY,INCLINATION,RA_OF_ASC_NODE,ARG_OF_PERICENTER,MEAN_ANOMALY,BSTAR,MEAN_MOTION_DOT,MEAN_MOTION_DDOT,TLE_LINE0,TLE_LINE1,TLE_LINE2,SEMIMAJOR_AXIS,PERIOD,APOGEE,PERIGEE,DECAYED
56452.0,STARLINK-5986,PAYLOAD,2023-11-23 19:04:17,14.98321508,0.0002836,70.0009,94.7188,259.5316,100.5523,-0.00012366,-1.568e-05,0.0,0 STARLINK-5986,1 56452U 23064E   23327.79464422 -.00001568  00000-0 -12366-3 0  9995,2 56452  70.0009  94.7188 0002836 259.5316 100.5523 14.98321508 30243,6950.219,96.108,574.055,570.113,0.0
56452.0,STARLINK-5986,PAYLOAD,2023-11-24 11:05:37,14.98330473,0.0003033,70.0004,93.0345,268.0159,92.0653,-0.00011533,-1.469e-05,0.0,0 STARLINK-5986,1 56452U 23064E   23328.46224014 -.00001469  00000-0 -11533-3 0  9996,2 56452  70.0004  93.0345 0003033 268.0159  92.0653 14.98330473 30346,6950.191,96.107,574.164,569.948,0.0
56452.0,STARLINK-5986,PAYLOAD,2023-11-24 14:17:53,14.98329975,0.0002825,70.0008,92.6979,267.2377,92.8459,-9.52e-05,-1.229e-05,0.0,0 STARLINK-5986,1 56452U 23064E   23328.59576011 -.00001229  00000-0 -95200-4 0  9995,2 56452  70.0008  92.6979 0002825 267.2377  92.8459 14.98329975 30009,6950.193,96.107,574.021,570.095,0.0
56452.0,STARLINK-5986,PAYLOAD,2023-11-24 17:30:09,14.98333148,0.0002868,70.0007,92.3612,265.534,94.5492,-6.0425e-05,-8.14e-06,0.0,0 STARLINK-5986,1 56452U 23064E   23328.72927668 -.00000814  00000-0 -60425-4 0  9998,2 56452  70.0007  92.3612 0002868 265.5340  94.5492 14.98333148 30022,6950.183,96.107,574.041,570.055,0.0
56452.0,STARLINK-5986,PAYLOAD,2023-11-25 14:19:54,14.9832601,0.0002698,70.0014,90.1739,251.8879,108.1986,0.00013727,1.545e-05,0.0,0 STARLINK-5986,1 56452U 23064E   23329.59715610  .00001545  00000-0  13727-3 0  9998,2 56452  70.0014  90.1739 0002698 251.8879 108.1986 14.98326010 30156,6950.205,96.107,573.945,570.195,0.0
56452.0,STARLINK-5986,PAYLOAD,2023-11-25 17:32:09,14.98331667,0.0002709,70.0018,89.8378,241.4026,118.6861,0.00021709,2.498e-05,0.0,0 STARLINK-5986,1 56452U 23064E   23329.73066991  .00002498  00000-0  21709-3 0  9992,2 56452  70.0018  89.8378 0002709 241.4026 118.6861 14.98331667 30170,6950.188,96.107,573.936,570.17,0.0
56452.0,STARLINK-5986,PAYLOAD,2023-11-26 14:21:54,14.98337313,0.0002537,70.0024,87.6509,250.7329,109.3556,0.00012611,1.412e-05,0.0,0 STARLINK-5986,1 56452U 23064E   23330.59854515  .00001412  00000-0  12611-3 0  9992,2 56452  70.0024  87.6509 0002537 250.7329 109.3556 14.98337313 30304,6950.17,96.107,573.799,570.272,0.0
56452.0,STARLINK-5986,PAYLOAD,2023-11-26 17:34:10,14.98338335,0.000252,70.0015,87.3118,270.7798,89.3073,0.0001051,1.162e-05,0.0,0 STARLINK-5986,1 56452U 23064E   23330.73206497  .00001162  00000-0  10510-3 0  9996,2 56452  70.0015  87.3118 0002520 270.7798  89.3073 14.98338335 30688,6950.167,96.106,573.784,570.281,0.0
56452.0,STARLINK-5986,PAYLOAD,2023-11-27 11:11:41,14.98318384,0.0003003,70.0007,85.4606,261.674,98.4079,-0.00026843,-3.293e-05,0.0,0 STARLINK-5986,1 56452U 23064E   23331.46644893 -.00003293  00000-0 -26843-3 0  9998,2 56452  70.0007  85.4606 0003003 261.6740  98.4079 14.98318384 30794,6950.229,96.108,574.181,570.007,0.0
56452.0,STARLINK-5986,PAYLOAD,2023-11-27 14:23:57,14.98313363,0.0002578,70.0018,85.1244,249.4419,110.6464,-0.00026743,-3.281e-05,0.0,0 STARLINK-5986,1 56452U 23064E   23331.59997330 -.00003281  00000-0 -26743-3 0  9995,2 56452  70.0018  85.1244 0002578 249.4419 110.6464 14.98313363 30454,6950.244,96.108,573.901,570.318,0.0
56452.0,STARLINK-5986,PAYLOAD,2023-11-27 17:36:13,14.98314783,0.000265,70.0015,84.7877,253.1345,106.9524,-0.00025168,-3.093e-05,0.0,0 STARLINK-5986,1 56452U 23064E   23331.73349295 -.00003093  00000-0 -25168-3 0  9993,2 56452  70.0015  84.7877 0002650 253.1345 106.9524 14.98314783 30473,6950.24,96.108,573.947,570.263,0.0
56452.0,STARLINK-5986,PAYLOAD,2023-11-28 11:13:41,14.98330869,0.0002708,70.0018,82.9351,262.4879,97.5972,-1.211e-05,-2.37e-06,0.0,0 STARLINK-5986,1 56452U 23064E   23332.46783638 -.00000237  00000-0 -12110-4 0  9998,2 56452  70.0018  82.9351 0002708 262.4879  97.5972 14.98330869 30949,6950.19,96.107,573.937,570.173,0.0
56452.0,STARLINK-5986,PAYLOAD,2023-11-28 14:25:56,14.98334209,0.0002532,70.0023,82.6,244.1596,115.9302,2.9005e-05,2.53e-06,0.0,0 STARLINK-5986,1 56452U 23064E   23332.60135211  .00000253  00000-0  29005-4 0  9999,2 56452  70.0023  82.6000 0002532 244.1596 115.9302 14.98334209 30608,6950.18,96.107,573.805,570.285,0.0
56452.0,STARLINK-5986,PAYLOAD,2023-11-28 17:38:12,14.98340436,0.0002733,70.0015,82.2635,257.5964,102.4889,5.8974e-05,6.11e-06,0.0,0 STARLINK-5986,1 56452U 23064E   23332.73486735  .00000611  00000-0  58974-4 0  9998,2 56452  70.0015  82.2635 0002733 257.5964 102.4889 14.98340436 30980,6950.161,96.106,573.925,570.126,0.0
56452.0,STARLINK-5986,PAYLOAD,2023-11-29 11:15:41,14.98323878,0.0002625,70.0029,80.4146,258.6012,101.4852,0.00022703,2.617e-05,0.0,0 STARLINK-5986,1 56452U 23064E   23333.46923469  .00002617  00000-0  22703-3 0  9997,2 56452  70.0029  80.4146 0002625 258.6012 101.4852 14.98323878 31091,6950.212,96.107,573.901,570.252,0.0
56452.0,STARLINK-5986,PAYLOAD,2023-11-29 14:27:57,14.98325394,0.0002648,70.0015,80.0759,250.6839,109.4033,0.00020908,2.402e-05,0.0,0 STARLINK-5986,1 56452U 23064E   23333.60275385  .00002402  00000-0  20908-3 0  9997,2 56452  70.0015  80.0759 0002648 250.6839 109.4033 14.98325394 30752,6950.207,96.107,573.913,570.232,0.0
56452.0,STARLINK-5986,PAYLOAD,2023-11-30 11:17:43,14.98330751,0.0002608,70.002,77.8893,237.4787,122.612,-6.5008e-05,-8.68e-06,0.0,0 STARLINK-5986,1 56452U 23064E   23334.47063820 -.00000868  00000-0 -65008-4 0  9999,2 56452  70.0020  77.8893 0002608 237.4787 122.6120 14.98330751 31244,6950.191,96.107,573.868,570.243,0.0
56452.0,STARLINK-5986,PAYLOAD,2023-11-30 16:06:07,14.98350142,0.0002389,70.0018,77.383,240.8915,119.2005,-0.00046976,-5.696e-05,0.0,0 STARLINK-5986,1 56452U 23064E   23334.67091594 -.00005696  00000-0 -46976-3 0  9996,2 56452  70.0018  77.3830 0002389 240.8915 119.2005 14.98350142 31277,6950.131,96.106,573.656,570.335,0.0
56452.0,STARLINK-5986,PAYLOAD,2023-12-01 08:07:27,14.98331599,0.0002898,70.0012,75.6995,263.2948,96.7881,-8.4358e-05,-1.099e-05,0.0,0 STARLINK-5986,1 56452U 23064E   23335.33851795 -.00001099  00000-0 -84358-4 0  9997,2 56452  70.0012  75.6995 0002898 263.2948  96.7881 14.98331599 31371,6950.188,96.107,574.067,570.039,0.0
56452.0,STARLINK-5986,PAYLOAD,2023-12-01 16:08:06,14.98350422,0.0002904,70.0018,74.8574,262.3703,97.7127,0.00020661,2.374e-05,0.0,0 STARLINK-5986,1 56452U 23064E   23335.67229723  .00002374  00000-0  20661-3 0  9995,2 56452  70.0018  74.8574 0002904 262.3703  97.7127 14.98350422 31424,6950.13,96.106,574.013,569.976,0.0
56452.0,STARLINK-5986,PAYLOAD,2023-12-02 11:21:43,14.98337458,0.0002689,70.0018,72.8378,252.6956,107.3909,0.0001706,1.944e-05,0.0,0 STARLINK-5986,1 56452U 23064E   23336.47342039  .00001944  00000-0  17060-3 0  9991,2 56452  70.0018  72.8378 0002689 252.6956 107.3909 14.98337458 31549,6950.17,96.107,573.904,570.166,0.0
56452.0,STARLINK-5986,PAYLOAD,2023-12-02 14:33:58,14.9835354,0.0002728,70.0018,72.5006,248.8731,111.2136,0.0003331,3.886e-05,0.0,0 STARLINK-5986,1 56452U 23064E   23336.60692453  .00003886  00000-0  33310-3 0  9997,2 56452  70.0018  72.5006 0002728 248.8731 111.2136 14.98353540 31205,6950.12,96.105,573.881,570.089,0.0
56452.0,STARLINK-5986,PAYLOAD,2023-12-02 16:10:04,14.9838057,0.0002807,70.0011,72.3322,270.8691,89.2147,0.00058607,6.916e-05,0.0,0 STARLINK-5986,1 56452U 23064E   23336.67366095  .00006916  00000-0  58607-3 0  9997,2 56452  70.0011  72.3322 0002807 270.8691  89.2147 14.98380570 31574,6950.037,96.104,573.852,569.951,0.0
56452.0,STARLINK-5986,PAYLOAD,2023-12-03 11:23:45,14.98311599,0.0003107,70.0009,70.3128,269.4062,90.6741,-0.00024284,-2.988e-05,0.0,0 STARLINK-5986,1 56452U 23064E   23337.47483706 -.00002988  00000-0 -24284-3 0  9996,2 56452  70.0009  70.3128 0003107 269.4062  90.6741 14.98311599 31697,6950.25,96.108,574.274,569.955,0.0
56452.0,STARLINK-5986,PAYLOAD,2023-12-03 14:36:02,14.98311031,0.0002937,70.0008,69.9754,265.7052,94.3772,-0.00025813,-3.17e-05,0.0,0 STARLINK-5986,1 56452U 23064E   23337.60835879 -.00003170  00000-0 -25813-3 0  9996,2 56452  70.0008  69.9754 0002937 265.7052  94.3772 14.98311031 31352,6950.252,96.108,574.158,570.075,0.0
56452.0,STARLINK-5986,PAYLOAD,2023-12-04 11:25:46,14.98324535,0.000292,70.0015,67.7893,259.5986,100.4844,-0.00019842,-2.459e-05,0.0,0 STARLINK-5986,1 56452U 23064E   23338.47623175 -.00002459  00000-0 -19842-3 0  9990,2 56452  70.0015  67.7893 0002920 259.5986 100.4844 14.98324535 31845,6950.21,96.107,574.104,570.045,0.0
56452.0,STARLINK-5986,PAYLOAD,2023-12-04 13:01:54,14.98323441,0.0002744,70.0013,67.619,259.2598,100.8252,-0.00021411,-2.646e-05,0.0,0 STARLINK-5986,1 56452U 23064E   23338.54299316 -.00002646  00000-0 -21411-3 0  9997,2 56452  70.0013  67.6190 0002744 259.2598 100.8252 14.98323441 31495,6950.213,96.107,573.985,570.171,0.0
56452.0,STARLINK-5986,PAYLOAD,2023-12-05 11:27:47,14.98314968,0.0002916,70.001,65.2625,265.7806,94.302,0.00023547,2.717e-05,0.0,0 STARLINK-5986,1 56452U 23064E   23339.47762781  .00002717  00000-0  23547-3 0  9990,2 56452  70.0010  65.2625 0002916 265.7806  94.3020 14.98314968 31993,6950.239,96.108,574.131,570.078,0.0
56452.0,STARLINK-5986,PAYLOAD,2023-12-05 13:03:55,14.98313767,0.0002777,70.0015,65.0939,264.812,95.2722,0.00023942,2.764e-05,0.0,0 STARLINK-5986,1 56452U 23064E   23339.54438874  .00002764  00000-0  23942-3 0  9992,2 56452  70.0015  65.0939 0002777 264.8120  95.2722 14.98313767 31645,6950.243,96.108,574.038,570.178,0.0
56452.0,STARLINK-5986,PAYLOAD,2023-12-06 11:29:49,14.98309685,0.0002656,70.0046,62.7442,223.9931,136.1017,-1.0426e-05,-2.17e-06,0.0,0 STARLINK-5986,1 56452U 23064E   23340.47904308 -.00000217  00000-0 -10426-4 0  9993,2 56452  70.0046  62.7442 0002656 223.9931 136.1017 14.98309685 32146,6950.256,96.108,573.967,570.275,0.0
